[{"OBJECT_NAME":"STARLINK-2159","OBJECT_ID":"2021-017Z","EPOCH":"2026-03-10T00:00:02.999808","MEAN_MOTION":15.44032923,"ECCENTRICITY":0.00013313,"INCLINATION":53.1594,"RA_OF_ASC_NODE":202.7134,"ARG_OF_PERICENTER":70.2433,"MEAN_ANOMALY":28.5184,"EPHEMERIS_TYPE":0,"CLASSIFICATION_TYPE":"U","NORAD_CAT_ID":47745,"ELEMENT_SET_NO":999,"REV_AT_EPOCH":586,"BSTAR":0.00019359105,"MEAN_MOTION_DOT":8.562e-5,"MEAN_MOTION_DDOT":0},{"OBJECT_NAME":"STARLINK-3137","OBJECT_ID":"2021-104AT","EPOCH":"2026-03-09T15:42:13.557312","MEAN_MOTION":15.41876935,"ECCENTRICITY":0.00013964,"INCLINATION":53.2186,"RA_OF_ASC_NODE":205.668,"ARG_OF_PERICENTER":7.8507,"MEAN_ANOMALY":352.2522,"EPHEMERIS_TYPE":0,"CLASSIFICATION_TYPE":"U","NORAD_CAT_ID":49449,"ELEMENT_SET_NO":999,"REV_AT_EPOCH":23896,"BSTAR":0.0015700331,"MEAN_MOTION_DOT":0.00067866,"MEAN_MOTION_DDOT":0}]
